start=new Date('2023-03-02T00:00:00.000Z').valueOf();
sats=[{"REV_AT_EPOCH":"11243","RA_OF_ASC_NODE":"47.6287","REF_FRAME":"TEME","NORAD_CAT_ID":"47724","CLASSIFICATION_TYPE":"U","OBJECT_ID":"2021-017C","ELEMENT_SET_NO":"999","OBJECT_NAME":"STARLINK-2116","MEAN_MOTION_DOT":"0.00024802","DECAY_DATE":null,"MEAN_MOTION":"15.06371422","MEAN_ELEMENT_THEORY":"SGP4","EPHEMERIS_TYPE":"0","PERIOD":"95.594","COUNTRY_CODE":"US","ARG_OF_PERICENTER":"108.0245","SITE":"AFETR","RCS_SIZE":"LARGE","MEAN_ANOMALY":"252.0860","TIME_SYSTEM":"UTC","FILE":"3848834","CENTER_NAME":"EARTH","EPOCH":"2023-03-01T16:47:03.574752","SEMIMAJOR_AXIS":"6925.436","GP_ID":"227316997","TLE_LINE2":"2 47724  53.0545  47.6287 0001066 108.0245 252.0860 15.06371422112430","APOAPSIS":"548.039","ECCENTRICITY":"0.00010660","TLE_LINE1":"1 47724U 21017C   23060.69934693  .00024802  00000-0  16794-2 0  9990","MEAN_MOTION_DDOT":"0.0000000000000","INCLINATION":"53.0545","OBJECT_TYPE":"PAYLOAD","LAUNCH_DATE":"2021-03-04","BSTAR":"0.00167940000000","PERIAPSIS":"546.563"},{"FILE":"3848834","CENTER_NAME":"EARTH","EPOCH":"2023-03-01T20:47:14.447616","SEMIMAJOR_AXIS":"6925.438","GP_ID":"227317247","APOAPSIS":"548.085","TLE_LINE2":"2 47725  53.0525 116.8753 0001129 119.5219 240.5883 15.06370754111493","ECCENTRICITY":"0.00011290","TLE_LINE1":"1 47725U 21017D   23060.86613944  .00029325  00000-0  19810-2 0  9990","MEAN_MOTION_DDOT":"0.0000000000000","INCLINATION":"53.0525","OBJECT_TYPE":"PAYLOAD","LAUNCH_DATE":"2021-03-04","BSTAR":"0.00198100000000","PERIAPSIS":"546.521","REV_AT_EPOCH":"11149","REF_FRAME":"TEME","NORAD_CAT_ID":"47725","RA_OF_ASC_NODE":"116.8753","CLASSIFICATION_TYPE":"U","OBJECT_ID":"2021-017D","ELEMENT_SET_NO":"999","OBJECT_NAME":"STARLINK-2125","MEAN_MOTION_DOT":"0.00029325","DECAY_DATE":null,"MEAN_MOTION":"15.06370754","MEAN_ELEMENT_THEORY":"SGP4","EPHEMERIS_TYPE":"0","PERIOD":"95.594","COUNTRY_CODE":"US","ARG_OF_PERICENTER":"119.5219","SITE":"AFETR","RCS_SIZE":"LARGE","MEAN_ANOMALY":"240.5883","TIME_SYSTEM":"UTC"},{"EPOCH":"2023-03-01T20:26:00.292992","FILE":"3848834","CENTER_NAME":"EARTH","SEMIMAJOR_AXIS":"6925.448","GP_ID":"227317998","TLE_LINE2":"2 47726  53.0516 116.9447 0000951  89.2068 270.9030 15.06367662111486","APOAPSIS":"547.971","ECCENTRICITY":"0.00009510","TLE_LINE1":"1 47726U 21017E   23060.85139228  .00017858  00000-0  12158-2 0  9994","MEAN_MOTION_DDOT":"0.0000000000000","INCLINATION":"53.0516","BSTAR":"0.00121580000000","PERIAPSIS":"546.654","OBJECT_TYPE":"PAYLOAD","LAUNCH_DATE":"2021-03-04","RA_OF_ASC_NODE":"116.9447","REF_FRAME":"TEME","NORAD_CAT_ID":"47726","OBJECT_ID":"2021-017E","CLASSIFICATION_TYPE":"U","REV_AT_EPOCH":"11148","MEAN_MOTION_DOT":"0.00017858","ELEMENT_SET_NO":"999","OBJECT_NAME":"STARLINK-2126","MEAN_ELEMENT_THEORY":"SGP4","DECAY_DATE":null,"MEAN_MOTION":"15.06367662","EPHEMERIS_TYPE":"0","COUNTRY_CODE":"US","PERIOD":"95.594","ARG_OF_PERICENTER":"89.2068","SITE":"AFETR","TIME_SYSTEM":"UTC","RCS_SIZE":"LARGE","MEAN_ANOMALY":"270.9030"},{"PERIAPSIS":"546.456","BSTAR":"0.00080355000000","LAUNCH_DATE":"2021-03-04","OBJECT_TYPE":"PAYLOAD","INCLINATION":"53.0553","MEAN_MOTION_DDOT":"0.0000000000000","TLE_LINE1":"1 47727U 21017F   23060.66983326  .00011699  00000-0  80355-3 0  9992","TLE_LINE2":"2 47727  53.0553  37.7597 0001214 111.4890 248.6229 15.06372841112611","APOAPSIS":"548.138","ECCENTRICITY":"0.00012140","GP_ID":"227318745","SEMIMAJOR_AXIS":"6925.432","EPOCH":"2023-03-01T16:04:33.593664","CENTER_NAME":"EARTH","FILE":"3848834","TIME_SYSTEM":"UTC","MEAN_ANOMALY":"248.6229","RCS_SIZE":"LARGE","SITE":"AFETR","ARG_OF_PERICENTER":"111.4890","COUNTRY_CODE":"US","PERIOD":"95.594","EPHEMERIS_TYPE":"0","MEAN_ELEMENT_THEORY":"SGP4","DECAY_DATE":null,"MEAN_MOTION":"15.06372841","MEAN_MOTION_DOT":"0.00011699","OBJECT_NAME":"STARLINK-2129","ELEMENT_SET_NO":"999","OBJECT_ID":"2021-017F","CLASSIFICATION_TYPE":"U","REF_FRAME":"TEME","RA_OF_ASC_NODE":"37.7597","NORAD_CAT_ID":"47727","REV_AT_EPOCH":"11261"},{"PERIOD":"95.595","COUNTRY_CODE":"US","RCS_SIZE":"LARGE","MEAN_ANOMALY":"276.9461","TIME_SYSTEM":"UTC","SITE":"AFETR","ARG_OF_PERICENTER":"83.1693","ELEMENT_SET_NO":"999","OBJECT_NAME":"STARLINK-2131","MEAN_MOTION_DOT":"-0.00002810","REV_AT_EPOCH":"11155","REF_FRAME":"TEME","RA_OF_ASC_NODE":"116.7580","NORAD_CAT_ID":"47728","OBJECT_ID":"2021-017G","CLASSIFICATION_TYPE":"U","EPHEMERIS_TYPE":"0","DECAY_DATE":null,"MEAN_MOTION":"15.06355708","MEAN_ELEMENT_THEORY":"SGP4","INCLINATION":"53.0523","MEAN_MOTION_DDOT":"0.0000000000000","OBJECT_TYPE":"PAYLOAD","LAUNCH_DATE":"2021-03-04","BSTAR":"-0.00017004000000","PERIAPSIS":"546.343","SEMIMAJOR_AXIS":"6925.484","FILE":"3848834","CENTER_NAME":"EARTH","EPOCH":"2023-03-01T21:24:24.027264","APOAPSIS":"548.356","TLE_LINE2":"2 47728  53.0523 116.7580 0001453  83.1693 276.9461 15.06355708111557","ECCENTRICITY":"0.00014530","TLE_LINE1":"1 47728U 21017G   23060.89194476 -.00002810  00000-0 -17004-3 0  9996","GP_ID":"227317497"},{"EPHEMERIS_TYPE":"0","MEAN_ELEMENT_THEORY":"SGP4","MEAN_MOTION":"15.06371798","DECAY_DATE":null,"MEAN_MOTION_DOT":"0.00031147","ELEMENT_SET_NO":"999","OBJECT_NAME":"STARLINK-2132","REF_FRAME":"TEME","NORAD_CAT_ID":"47729","RA_OF_ASC_NODE":"62.7288","CLASSIFICATION_TYPE":"U","OBJECT_ID":"2021-017H","REV_AT_EPOCH":"11223","TIME_SYSTEM":"UTC","RCS_SIZE":"LARGE","MEAN_ANOMALY":"269.4099","SITE":"AFETR","ARG_OF_PERICENTER":"90.7030","COUNTRY_CODE":"US","PERIOD":"95.594","TLE_LINE2":"2 47729  53.0519  62.7288 0001218  90.7030 269.4099 15.06371798112233","APOAPSIS":"548.144","ECCENTRICITY":"0.00012180","TLE_LINE1":"1 47729U 21017H   23060.72195174  .00031147  00000-0  21023-2 0  9993","GP_ID":"227317747","SEMIMAJOR_AXIS":"6925.435","EPOCH":"2023-03-01T17:19:36.630336","FILE":"3848834","CENTER_NAME":"EARTH","BSTAR":"0.00210230000000","PERIAPSIS":"546.456","OBJECT_TYPE":"PAYLOAD","LAUNCH_DATE":"2021-03-04","INCLINATION":"53.0519","MEAN_MOTION_DDOT":"0.0000000000000"},{"COUNTRY_CODE":"US","PERIOD":"95.595","ARG_OF_PERICENTER":"87.6829","SITE":"AFETR","TIME_SYSTEM":"UTC","RCS_SIZE":"LARGE","MEAN_ANOMALY":"272.4305","REF_FRAME":"TEME","RA_OF_ASC_NODE":"131.6681","NORAD_CAT_ID":"47730","CLASSIFICATION_TYPE":"U","OBJECT_ID":"2021-017J","REV_AT_EPOCH":"11129","MEAN_MOTION_DOT":"0.00027753","ELEMENT_SET_NO":"999","OBJECT_NAME":"STARLINK-2140","MEAN_ELEMENT_THEORY":"SGP4","DECAY_DATE":null,"MEAN_MOTION":"15.06362575","EPHEMERIS_TYPE":"0","MEAN_MOTION_DDOT":"0.0000000000000","INCLINATION":"53.0536","BSTAR":"0.00187660000000","PERIAPSIS":"546.451","OBJECT_TYPE":"PAYLOAD","LAUNCH_DATE":"2021-03-04","EPOCH":"2023-03-01T21:56:54.137472","FILE":"3848834","CENTER_NAME":"EARTH","SEMIMAJOR_AXIS":"6925.463","GP_ID":"227318498","APOAPSIS":"548.205","TLE_LINE2":"2 47730  53.0536 131.6681 0001266  87.6829 272.4305 15.06362575111293","ECCENTRICITY":"0.00012660","TLE_LINE1":"1 47730U 21017J   23060.91451548  .00027753  00000-0  18766-2 0  9994"},{"GP_ID":"227318246","TLE_LINE2":"2 47731  53.0517 127.8220 0001357  78.5414 281.5727 15.06360686111334","ECCENTRICITY":"0.00013570","APOAPSIS":"548.274","TLE_LINE1":"1 47731U 21017K   23060.65511520  .00027928  00000-0  18884-2 0  9998","FILE":"3848834","CENTER_NAME":"EARTH","EPOCH":"2023-03-01T15:43:21.953280","SEMIMAJOR_AXIS":"6925.469","OBJECT_TYPE":"PAYLOAD","LAUNCH_DATE":"2021-03-04","BSTAR":"0.00188840000000","PERIAPSIS":"546.394","MEAN_MOTION_DDOT":"0.0000000000000","INCLINATION":"53.0517","MEAN_MOTION":"15.06360686","DECAY_DATE":null,"MEAN_ELEMENT_THEORY":"SGP4","EPHEMERIS_TYPE":"0","REV_AT_EPOCH":"11133","RA_OF_ASC_NODE":"127.8220","REF_FRAME":"TEME","NORAD_CAT_ID":"47731","CLASSIFICATION_TYPE":"U","OBJECT_ID":"2021-017K","ELEMENT_SET_NO":"999","OBJECT_NAME":"STARLINK-2141","MEAN_MOTION_DOT":"0.00027928","SITE":"AFETR","ARG_OF_PERICENTER":"78.5414","RCS_SIZE":"LARGE","MEAN_ANOMALY":"281.5727","TIME_SYSTEM":"UTC","PERIOD":"95.595","COUNTRY_CODE":"US"},{"COUNTRY_CODE":"US","PERIOD":"95.590","SITE":"AFETR","ARG_OF_PERICENTER":"88.3456","TIME_SYSTEM":"UTC","MEAN_ANOMALY":"271.7726","RCS_SIZE":"LARGE","CLASSIFICATION_TYPE":"U","OBJECT_ID":"2021-017L","RA_OF_ASC_NODE":"44.0748","REF_FRAME":"TEME","NORAD_CAT_ID":"47732","REV_AT_EPOCH":"11248","MEAN_MOTION_DOT":"0.00022140","OBJECT_NAME":"STARLINK-2142","ELEMENT_SET_NO":"999","MEAN_ELEMENT_THEORY":"SGP4","DECAY_DATE":null,"MEAN_MOTION":"15.06433767","EPHEMERIS_TYPE":"0","MEAN_MOTION_DDOT":"0.0000000000000","INCLINATION":"53.0541","PERIAPSIS":"545.943","BSTAR":"0.00149920000000","LAUNCH_DATE":"2021-03-04","OBJECT_TYPE":"PAYLOAD","EPOCH":"2023-03-01T10:17:36.985056","CENTER_NAME":"EARTH","FILE":"3848834","SEMIMAJOR_AXIS":"6925.245","GP_ID":"227316998","TLE_LINE1":"1 47732U 21017L   23060.42890029  .00022140  00000-0  14992-2 0  9995","TLE_LINE2":"2 47732  53.0541  44.0748 0001685  88.3456 271.7726 15.06433767112484","APOAPSIS":"548.277","ECCENTRICITY":"0.00016850"},{"MEAN_MOTION":"15.06379547","DECAY_DATE":null,"MEAN_ELEMENT_THEORY":"SGP4","EPHEMERIS_TYPE":"0","REV_AT_EPOCH":"11127","RA_OF_ASC_NODE":"136.6844","REF_FRAME":"TEME","NORAD_CAT_ID":"47733","CLASSIFICATION_TYPE":"U","OBJECT_ID":"2021-017M","ELEMENT_SET_NO":"999","OBJECT_NAME":"STARLINK-2143","MEAN_MOTION_DOT":"0.00020713","SITE":"AFETR","ARG_OF_PERICENTER":"93.0476","RCS_SIZE":"LARGE","MEAN_ANOMALY":"267.0663","TIME_SYSTEM":"UTC","PERIOD":"95.593","COUNTRY_CODE":"US","GP_ID":"227317248","TLE_LINE2":"2 47733  53.0528 136.6844 0001314  93.0476 267.0663 15.06379547111278","APOAPSIS":"548.186","ECCENTRICITY":"0.00013140","TLE_LINE1":"1 47733U 21017M   23060.90852287  .00020713  00000-0  14061-2 0  9994","FILE":"3848834","CENTER_NAME":"EARTH","EPOCH":"2023-03-01T21:48:16.375968","SEMIMAJOR_AXIS":"6925.411","OBJECT_TYPE":"PAYLOAD","LAUNCH_DATE":"2021-03-04","BSTAR":"0.00140610000000","PERIAPSIS":"546.366","MEAN_MOTION_DDOT":"0.0000000000000","INCLINATION":"53.0528"}];
